[{"OBJECT_NAME":"STARLINK-3005","OBJECT_ID":"2021-059C","EPOCH":"2026-03-09T21:10:19.770528","MEAN_MOTION":15.01257236,"ECCENTRICITY":0.00022665,"INCLINATION":97.6587,"RA_OF_ASC_NODE":195.442,"ARG_OF_PERICENTER":88.8014,"MEAN_ANOMALY":271.347,"EPHEMERIS_TYPE":0,"CLASSIFICATION_TYPE":"U","NORAD_CAT_ID":48881,"ELEMENT_SET_NO":999,"REV_AT_EPOCH":25883,"BSTAR":-6.59291e-6,"MEAN_MOTION_DOT":-1.44e-6,"MEAN_MOTION_DDOT":0},{"OBJECT_NAME":"SL-8 DEB","OBJECT_ID":"1972-043D","EPOCH":"2026-03-09T22:05:55.512096","MEAN_MOTION":15.0117212,"ECCENTRICITY":0.00057803,"INCLINATION":74.0604,"RA_OF_ASC_NODE":30.4168,"ARG_OF_PERICENTER":131.677,"MEAN_ANOMALY":228.4914,"EPHEMERIS_TYPE":0,"CLASSIFICATION_TYPE":"U","NORAD_CAT_ID":6065,"ELEMENT_SET_NO":999,"REV_AT_EPOCH":84295,"BSTAR":0.0010977341,"MEAN_MOTION_DOT":0.00014073,"MEAN_MOTION_DDOT":0}]
